#aV2011 10  9  0  0   .00000000      96 DD+AD WGS84 FIT  NGA
## 1657       .00000000   900.00000000 55843  .0000000000000
+   31     1  2  3  4  5  6  7  8  9 10 11 12 13 14 15 16 17
+         18 19 20 21 22 23 25 26 27 28 29 30 31 32  0  0  0
+          0  0  0  0  0  0  0  0  0  0  0  0  0  0  0  0  0
+          0  0  0  0  0  0  0  0  0  0  0  0  0  0  0  0  0
+          0  0  0  0  0  0  0  0  0  0  0  0  0  0  0  0  0
++         0  0  0  0  0  0  0  0  0  0  0  0  0  0  0  0  0
++         0  0  0  0  0  0  0  0  0  0  0  0  0  0  0  0  0
++         0  0  0  0  0  0  0  0  0  0  0  0  0  0  0  0  0
++         0  0  0  0  0  0  0  0  0  0  0  0  0  0  0  0  0
++         0  0  0  0  0  0  0  0  0  0  0  0  0  0  0  0  0
%c cc cc ccc ccc cccc cccc cccc cccc ccccc ccccc ccccc ccccc
%c cc cc ccc ccc cccc cccc cccc cccc ccccc ccccc ccccc ccccc
%f  0.0000000  0.000000000  0.00000000000  0.000000000000000
%f  0.0000000  0.000000000  0.00000000000  0.000000000000000
%i    0    0    0    0      0      0      0      0         0
%i    0    0    0    0      0      0      0      0         0
/*      NGA, ST. LOUIS,MO.                                  
/*   EPHEMERIS COMPUTED FROM  3 DAYS OF DATA                
/* CCCCCCCCCCCCCCCCCCCCCCCCCCCCCCCCCCCCCCCCCCCCCCCCCCCCCCCCC
/* CCCCCCCCCCCCCCCCCCCCCCCCCCCCCCCCCCCCCCCCCCCCCCCCCCCCCCCCC
*  2011 10  9 17 15   .00000000                                                 
P  1  13462.988732 -10914.011660  20114.511575     12.027246                    
V  1   2527.885814  25465.506085  12118.300422       .336102                    
P  2 -13946.482711 -14173.789993 -17761.067843    360.021933                    
V  2    218.280662 -22652.064955  17336.401094       .018054                    
P  3  24213.054596  11029.265929  -2925.276650    779.080813                    
V  3  -4161.067762   2210.675272 -30561.799087       .050678                    
P  4  -6933.380836 -24290.408386  -7851.769960    255.496168                    
V  4   3039.112032  -9951.101376  29277.995634       .113183                    
P  5 -19292.633556  -2838.916079 -18100.196282   -229.433893                    
V  5  18378.738538 -13816.135087 -17317.295893      -.051404                    
P  6  21828.869164  14256.595034  -5593.408255    -52.888280                    
V  6  -7954.611268     35.112717 -29963.105285       .076080                    
P  7   6597.580538 -23116.691122 -11004.613243     30.885192                    
V  7   2741.965005  13964.310881 -27891.298068       .019659                    
P  8   1830.652426 -26149.521661  -1167.481008       .032424                    
V  8   2066.464965   1643.751483 -32894.015086      -.000509                    
P  9 -13682.409551   6729.423143  21204.420015    110.667085                    
V  9  -2340.475139 -28066.075143   7189.111149       .023878                    
P 10  -2967.886681 -16008.299510 -21147.394401    -15.706720                    
V 10  22989.461740 -13115.435142   7156.620637      -.010648                    
P 11  16109.969371  -4019.938740  20386.016583   -193.247579                    
V 11   8188.560366  25756.502153  -1026.176372      -.034748                    
P 12 -23557.287563  11399.193121   3961.742845     27.460090                    
V 12   3014.638397  -4705.391611  31690.087405       .023556                    
P 13  10652.631209 -10502.747785 -22089.986496    247.482376                    
V 13  23294.068029  14868.364084   4109.244302      -.018933                    
P 14   9441.909165  18603.165613  16702.563340    176.044367                    
V 14 -18519.104621  -9491.853343  21120.548593       .017276                    
P 15 -23692.064173  -1977.409273  12036.175925   -103.191029                    
V 15 -12557.142640  -8983.169889 -26035.210595       .013557                    
P 16  19863.162767   2051.351635 -17643.637013   -202.408383                    
V 16 -18550.370528  12398.257017 -19140.341962      -.021425                    
P 17  -9474.828802 -18599.962993  16703.301897    171.487504                    
V 17  19007.223208   8706.355749  20422.011635      -.018938                    
P 18 -12770.273740  19348.452614  12961.688783    161.312141                    
V 18 -15347.576054   5891.603095 -24927.040886       .018515                    
P 19  23822.347509   6483.678280  10236.876910   -192.489041                    
V 19   9736.154963   8795.821522 -27789.789338      -.040118                    
P 20  22696.600278 -13399.118911   2819.914475     54.124667                    
V 20   -923.879349   5252.280791  30873.467279       .005869                    
P 21  -4167.315858  24836.511282  -6970.563134   -176.805058                    
V 21  -4489.791337  -9436.452330 -29728.339881      -.024577                    
P 22    820.521567  17310.524234  20282.081901    144.071224                    
V 22 -22321.304369  12396.789151  -9875.491970      -.001221                    
P 23  19030.728876  -4230.932579 -18176.853969    269.314466                    
V 23  19685.960940  11951.603074  17448.162103      -.031371                    
P 25 -18704.895292  17712.771223  -6432.399219     22.561412                    
V 25  -8204.038384   2344.004177  30464.376515       .017976                    
P 26 -23171.572882 -13253.203259   1449.800633   -184.850777                    
V 26  -1250.855773  -2810.851537 -31971.937834      -.130225                    
P 27 -15142.425143   -755.972644  22472.627584    313.459998                    
V 27  -2474.265995 -26786.743901  -2272.011445       .038089                    
P 28   3273.001257 -17615.406711  20051.069907     74.173495                    
V 28  21552.391346 -11382.990877 -14134.530664       .031884                    
P 29 -10699.178801  11179.245856 -21519.357577    246.925374                    
V 29 -23695.341869 -13916.558596   4577.004245       .033938                    
P 30  -5015.630305  19740.814217 -17459.127284     72.120068                    
V 30 -17770.792404  12055.542037  19150.658414      -.058907                    
P 31   7963.701070  22763.203057 -10682.252636    153.026526                    
V 31  -1632.805442  13976.410427  28249.042623       .053831                    
P 32  24019.265749  -4603.657694  10046.143355   -342.650212                    
V 32  -9702.989927   8490.299532  28246.902450      -.063598                    
EOF
